[{"OBJECT_NAME":"SALSAT","OBJECT_ID":"2020-068K","EPOCH":"2026-03-09T22:26:21.804576","MEAN_MOTION":15.28191989,"ECCENTRICITY":0.00082652,"INCLINATION":97.8859,"RA_OF_ASC_NODE":66.0795,"ARG_OF_PERICENTER":295.8051,"MEAN_ANOMALY":64.2334,"EPHEMERIS_TYPE":0,"CLASSIFICATION_TYPE":"U","NORAD_CAT_ID":46495,"ELEMENT_SET_NO":999,"REV_AT_EPOCH":30019,"BSTAR":0.00040842582,"MEAN_MOTION_DOT":0.00011156,"MEAN_MOTION_DDOT":0},{"OBJECT_NAME":"STARLINK-34142","OBJECT_ID":"2025-099F","EPOCH":"2026-03-08T09:07:08.038560","MEAN_MOTION":15.27584978,"ECCENTRICITY":0.00012078,"INCLINATION":43.0005,"RA_OF_ASC_NODE":183.8245,"ARG_OF_PERICENTER":272.8686,"MEAN_ANOMALY":87.2027,"EPHEMERIS_TYPE":0,"CLASSIFICATION_TYPE":"U","NORAD_CAT_ID":63957,"ELEMENT_SET_NO":999,"REV_AT_EPOCH":4713,"BSTAR":0.0021135314,"MEAN_MOTION_DOT":0.00058368,"MEAN_MOTION_DDOT":0}]
